{"type": "FeatureCollection", "features": [ {"type": "Feature", "properties": {"norad_id": 30061, "name": "FENGYUN 1C DEB", "group": "fengyun-1c-debris", "lat": -60.4572707381412, "lon": -90.35636794296958, "alt_km": 830.3236908708186, "timestamp": "2025-12-25T09:48:52.563818+00:00", "meta": {"OBJECT_NAME": "FENGYUN 1C DEB", "OBJECT_ID": "1999-025PN", "EPOCH": "2025-12-24T06:00:32.304096", "MEAN_MOTION": 13.4651677, "ECCENTRICITY": 0.03733453, "INCLINATION": 101.8749, "RA_OF_ASC_NODE": 110.0628, "ARG_OF_PERICENTER": 224.5028, "MEAN_ANOMALY": 163.2146, "EPHEMERIS_TYPE": 0, "CLASSIFICATION_TYPE": "U", "NORAD_CAT_ID": 30061, "ELEMENT_SET_NO": 999, "REV_AT_EPOCH": 92254, "BSTAR": 0.0038948046, "MEAN_MOTION_DOT": 3.525e-05, "MEAN_MOTION_DDOT": 0}, "tle": {"line1": "1 30061U 99025PN  25358.25037389  .00003525  00000+0  38948-2 0  9993", "line2": "2 30061 101.8749 110.0628 0373345 224.5028 163.2146 13.46516770922543"}}, "geometry": {"type": "Point", "coordinates": [-90.35636794296958, -60.4572707381412]}}, {"type": "Feature", "properties": {"norad_id": 30062, "name": "FENGYUN 1C DEB", "group": "fengyun-1c-debris", "lat": 64.32431996625398, "lon": -10.52187607485811, "alt_km": 841.3713560526403, "timestamp": "2025-12-25T09:48:52.563827+00:00", "meta": {"OBJECT_NAME": "FENGYUN 1C DEB", "OBJECT_ID": "1999-025PP", "EPOCH": "2025-12-24T12:05:27.472416", "MEAN_MOTION": 14.07127384, "ECCENTRICITY": 0.00490319, "INCLINATION": 98.7805, "RA_OF_ASC_NODE": 7.3524, "ARG_OF_PERICENTER": 15.4297, "MEAN_ANOMALY": 147.3011, "EPHEMERIS_TYPE": 0, "CLASSIFICATION_TYPE": "U", "NORAD_CAT_ID": 30062, "ELEMENT_SET_NO": 999, "REV_AT_EPOCH": 97073, "BSTAR": 0.00041681918, "MEAN_MOTION_DOT": 6.62e-06, "MEAN_MOTION_DDOT": 0}, "tle": {"line1": "1 30062U 99025PP  25358.50379019  .00000662  00000+0  41682-3 0  9990", "line2": "2 30062  98.7805   7.3524 0049031  15.4297 147.3011 14.07127384970736"}}, "geometry": {"type": "Point", "coordinates": [-10.52187607485811, 64.32431996625398]}}, {"type": "Feature", "properties": {"norad_id": 30063, "name": "FENGYUN 1C DEB", "group": "fengyun-1c-debris", "lat": 73.18465176590792, "lon": -172.58429683171357, "alt_km": 809.2306201535239, "timestamp": "2025-12-25T09:48:52.563837+00:00", "meta": {"OBJECT_NAME": "FENGYUN 1C DEB", "OBJECT_ID": "1999-025PQ", "EPOCH": "2025-12-24T21:42:04.021344", "MEAN_MOTION": 14.15615591, "ECCENTRICITY": 0.00333361, "INCLINATION": 98.5228, "RA_OF_ASC_NODE": 337.185, "ARG_OF_PERICENTER": 100.2665, "MEAN_ANOMALY": 313.461, "EPHEMERIS_TYPE": 0, "CLASSIFICATION_TYPE": "U", "NORAD_CAT_ID": 30063, "ELEMENT_SET_NO": 999, "REV_AT_EPOCH": 97837, "BSTAR": 8.3750789e-05, "MEAN_MOTION_DOT": 1.24e-06, "MEAN_MOTION_DDOT": 0}, "tle": {"line1": "1 30063U 99025PQ  25358.90421321  .00000124  00000+0  83751-4 0  9996", "line2": "2 30063  98.5228 337.1850 0033336 100.2665 313.4610 14.15615591978373"}}, "geometry": {"type": "Point", "coordinates": [-172.58429683171357, 73.18465176590792]}}, {"type": "Feature", "properties": {"norad_id": 30064, "name": "FENGYUN 1C DEB", "group": "fengyun-1c-debris", "lat": 10.442112295480692, "lon": -168.31545280262574, "alt_km": 848.9345881784184, "timestamp": "2025-12-25T09:48:52.563848+00:00", "meta": {"OBJECT_NAME": "FENGYUN 1C DEB", "OBJECT_ID": "1999-025PR", "EPOCH": "2025-12-24T13:12:48.543840", "MEAN_MOTION": 14.14277218, "ECCENTRICITY": 0.0066674, "INCLINATION": 98.6613, "RA_OF_ASC_NODE": 9.2426, "ARG_OF_PERICENTER": 78.1656, "MEAN_ANOMALY": 42.4931, "EPHEMERIS_TYPE": 0, "CLASSIFICATION_TYPE": "U", "NORAD_CAT_ID": 30064, "ELEMENT_SET_NO": 999, "REV_AT_EPOCH": 97672, "BSTAR": 0.00015722199, "MEAN_MOTION_DOT": 2.65e-06, "MEAN_MOTION_DDOT": 0}, "tle": {"line1": "1 30064U 99025PR  25358.55056185  .00000265  00000+0  15722-3 0  9998", "line2": "2 30064  98.6613   9.2426 0066674  78.1656  42.4931 14.14277218976724"}}, "geometry": {"type": "Point", "coordinates": [-168.31545280262574, 10.442112295480692]}}, {"type": "Feature", "properties": {"norad_id": 30065, "name": "FENGYUN 1C DEB", "group": "fengyun-1c-debris", "lat": -41.951038818294286, "lon": -20.7618997488179, "alt_km": 871.4975080453514, "timestamp": "2025-12-25T09:48:52.563857+00:00", "meta": {"OBJECT_NAME": "FENGYUN 1C DEB", "OBJECT_ID": "1999-025PS", "EPOCH": "2025-12-24T21:53:41.319456", "MEAN_MOTION": 13.86920984, "ECCENTRICITY": 0.01311548, "INCLINATION": 98.6857, "RA_OF_ASC_NODE": 330.8792, "ARG_OF_PERICENTER": 358.4903, "MEAN_ANOMALY": 1.5842, "EPHEMERIS_TYPE": 0, "CLASSIFICATION_TYPE": "U", "NORAD_CAT_ID": 30065, "ELEMENT_SET_NO": 999, "REV_AT_EPOCH": 95840, "BSTAR": 0.00017479455, "MEAN_MOTION_DOT": 1.78e-06, "MEAN_MOTION_DDOT": 0}, "tle": {"line1": "1 30065U 99025PS  25358.91228379  .00000178  00000+0  17479-3 0  9999", "line2": "2 30065  98.6857 330.8792 0131154 358.4903   1.5842 13.86920984958404"}}, "geometry": {"type": "Point", "coordinates": [-20.7618997488179, -41.951038818294286]}}, {"type": "Feature", "properties": {"norad_id": 30066, "name": "FENGYUN 1C DEB", "group": "fengyun-1c-debris", "lat": -33.61523984128177, "lon": 163.72166562750616, "alt_km": 751.7375553968959, "timestamp": "2025-12-25T09:48:52.563867+00:00", "meta": {"OBJECT_NAME": "FENGYUN 1C DEB", "OBJECT_ID": "1999-025PT", "EPOCH": "2025-12-24T22:54:41.459328", "MEAN_MOTION": 14.19117515, "ECCENTRICITY": 0.01169128, "INCLINATION": 98.6352, "RA_OF_ASC_NODE": 349.0769, "ARG_OF_PERICENTER": 226.3728, "MEAN_ANOMALY": 188.2291, "EPHEMERIS_TYPE": 0, "CLASSIFICATION_TYPE": "U", "NORAD_CAT_ID": 30066, "ELEMENT_SET_NO": 999, "REV_AT_EPOCH": 98010, "BSTAR": 0.00013733826, "MEAN_MOTION_DOT": 2.64e-06, "MEAN_MOTION_DDOT": 0}, "tle": {"line1": "1 30066U 99025PT  25358.95464652  .00000264  00000+0  13734-3 0  9996", "line2": "2 30066  98.6352 349.0769 0116912 226.3728 188.2291 14.19117515980102"}}, "geometry": {"type": "Point", "coordinates": [163.72166562750616, -33.61523984128177]}}, {"type": "Feature", "properties": {"norad_id": 30067, "name": "FENGYUN 1C DEB", "group": "fengyun-1c-debris", "lat": 2.9602655402980536, "lon": 66.32965441006, "alt_km": 851.8968390651444, "timestamp": "2025-12-25T09:48:52.563877+00:00", "meta": {"OBJECT_NAME": "FENGYUN 1C DEB", "OBJECT_ID": "1999-025PU", "EPOCH": "2025-12-24T16:38:33.146016", "MEAN_MOTION": 14.43723806, "ECCENTRICITY": 0.0151221, "INCLINATION": 98.7655, "RA_OF_ASC_NODE": 245.1357, "ARG_OF_PERICENTER": 342.4324, "MEAN_ANOMALY": 78.3351, "EPHEMERIS_TYPE": 0, "CLASSIFICATION_TYPE": "U", "NORAD_CAT_ID": 30067, "ELEMENT_SET_NO": 999, "REV_AT_EPOCH": 99371, "BSTAR": 0.00042761353, "MEAN_MOTION_DOT": 1.616e-05, "MEAN_MOTION_DDOT": 0}, "tle": {"line1": "1 30067U 99025PU  25358.69343919  .00001616  00000+0  42761-3 0  9994", "line2": "2 30067  98.7655 245.1357 0151221 342.4324  78.3351 14.43723806993713"}}, "geometry": {"type": "Point", "coordinates": [66.32965441006, 2.9602655402980536]}}, {"type": "Feature", "properties": {"norad_id": 30068, "name": "FENGYUN 1C DEB", "group": "fengyun-1c-debris", "lat": 56.333913909767375, "lon": -26.447938765580087, "alt_km": 879.1304853211095, "timestamp": "2025-12-25T09:48:52.563887+00:00", "meta": {"OBJECT_NAME": "FENGYUN 1C DEB", "OBJECT_ID": "1999-025PV", "EPOCH": "2025-12-24T16:32:26.473056", "MEAN_MOTION": 14.12057692, "ECCENTRICITY": 0.01894179, "INCLINATION": 98.7375, "RA_OF_ASC_NODE": 346.1999, "ARG_OF_PERICENTER": 314.8035, "MEAN_ANOMALY": 43.7868, "EPHEMERIS_TYPE": 0, "CLASSIFICATION_TYPE": "U", "NORAD_CAT_ID": 30068, "ELEMENT_SET_NO": 999, "REV_AT_EPOCH": 97512, "BSTAR": 0.0001889102, "MEAN_MOTION_DOT": 3.65e-06, "MEAN_MOTION_DDOT": 0}, "tle": {"line1": "1 30068U 99025PV  25358.68919529  .00000365  00000+0  18891-3 0  9997", "line2": "2 30068  98.7375 346.1999 0189417 314.8035  43.7868 14.12057692975120"}}, "geometry": {"type": "Point", "coordinates": [-26.447938765580087, 56.333913909767375]}}, {"type": "Feature", "properties": {"norad_id": 30069, "name": "FENGYUN 1C DEB", "group": "fengyun-1c-debris", "lat": -6.8753354109447065, "lon": 159.81316427197737, "alt_km": 914.6380726307398, "timestamp": "2025-12-25T09:48:52.563897+00:00", "meta": {"OBJECT_NAME": "FENGYUN 1C DEB", "OBJECT_ID": "1999-025PW", "EPOCH": "2025-12-24T22:58:25.044384", "MEAN_MOTION": 14.05235981, "ECCENTRICITY": 0.00494464, "INCLINATION": 98.8025, "RA_OF_ASC_NODE": 340.4453, "ARG_OF_PERICENTER": 19.3745, "MEAN_ANOMALY": 43.5013, "EPHEMERIS_TYPE": 0, "CLASSIFICATION_TYPE": "U", "NORAD_CAT_ID": 30069, "ELEMENT_SET_NO": 999, "REV_AT_EPOCH": 97018, "BSTAR": 0.00034538147, "MEAN_MOTION_DOT": 5.22e-06, "MEAN_MOTION_DDOT": 0}, "tle": {"line1": "1 30069U 99025PW  25358.95723431  .00000522  00000+0  34538-3 0  9994", "line2": "2 30069  98.8025 340.4453 0049446  19.3745  43.5013 14.05235981970180"}}, "geometry": {"type": "Point", "coordinates": [159.81316427197737, -6.8753354109447065]}}, {"type": "Feature", "properties": {"norad_id": 30070, "name": "FENGYUN 1C DEB", "group": "fengyun-1c-debris", "lat": -7.65955930330684, "lon": -123.05267127340488, "alt_km": 875.3609799407368, "timestamp": "2025-12-25T09:48:52.563907+00:00", "meta": {"OBJECT_NAME": "FENGYUN 1C DEB", "OBJECT_ID": "1999-025PX", "EPOCH": "2025-12-24T16:27:49.639680", "MEAN_MOTION": 14.10006786, "ECCENTRICITY": 0.0327949, "INCLINATION": 98.2846, "RA_OF_ASC_NODE": 57.4028, "ARG_OF_PERICENTER": 284.5151, "MEAN_ANOMALY": 199.2141, "EPHEMERIS_TYPE": 0, "CLASSIFICATION_TYPE": "U", "NORAD_CAT_ID": 30070, "ELEMENT_SET_NO": 999, "REV_AT_EPOCH": 96047, "BSTAR": 0.0016421151, "MEAN_MOTION_DOT": 4.74e-05, "MEAN_MOTION_DDOT": 0}, "tle": {"line1": "1 30070U 99025PX  25358.68599120  .00004740  00000+0  16421-2 0  9998", "line2": "2 30070  98.2846  57.4028 0327949 284.5151 199.2141 14.10006786960471"}}, "geometry": {"type": "Point", "coordinates": [-123.05267127340488, -7.65955930330684]}}]}